0 DELTA 1 DEB
1 09570U 73086FX  13283.47319687 -.00000050  00000-0 -50585-4 0   363
2 09570 101.7769 000.9212 0067745 165.5785 263.5464 12.41173239803402
0 DELTA 1 DEB
1 09570U 73086FX  13285.82133654 -.00000039  00000-0  35153-4 0   373
2 09570 101.7768 003.1977 0067756 161.2000 315.5182 12.41173010803692
0 DELTA 1 DEB
1 09570U 73086FX  13288.15817258 -.00000015  00000-0  20526-3 0   383
2 09570 101.7764 005.4633 0067794 156.8173 317.0079 12.41172935803984
0 DELTA 1 DEB
1 09570U 73086FX  13291.20128056 -.00000020  00000-0  17220-3 0   398
2 09570 101.7756 008.4137 0067780 151.1264 234.2553 12.41173168804360
0 DELTA 1 DEB
1 09570U 73086FX  13293.80180743 -.00000034  00000-0  67695-4 0   406
2 09570 101.7753 010.9346 0067755 146.2925 333.9295 12.41173444804680
0 DELTA 1 DEB
1 09570U 73086FX  13296.20621701 -.00000044  00000-0 -76136-5 0   411
2 09570 101.7753 013.2652 0067733 141.7916 277.3457 12.41173642804986
